{"type": "FeatureCollection", "features": [ {"type": "Feature", "properties": {"norad_id": 59598, "name": "GSAT0225 (GALILEO 29)", "group": "gnss", "lat": -50.630332718118254, "lon": 47.83304287843126, "alt_km": 23230.350549568506, "timestamp": "2025-12-09T05:43:20.968833+00:00", "meta": {"OBJECT_NAME": "GSAT0225 (GALILEO 29)", "OBJECT_ID": "2024-079A", "EPOCH": "2025-12-07T07:17:21.433056", "MEAN_MOTION": 1.70474562, "ECCENTRICITY": 0.00020328, "INCLINATION": 54.9984, "RA_OF_ASC_NODE": 106.4468, "ARG_OF_PERICENTER": 173.4457, "MEAN_ANOMALY": 8.4253, "EPHEMERIS_TYPE": 0, "CLASSIFICATION_TYPE": "U", "NORAD_CAT_ID": 59598, "ELEMENT_SET_NO": 999, "REV_AT_EPOCH": 1004, "BSTAR": 0, "MEAN_MOTION_DOT": 7e-08, "MEAN_MOTION_DDOT": 0}, "tle": {"line1": "1 59598U 24079A   25341.30372029  .00000007  00000+0  00000+0 0  9994", "line2": "2 59598  54.9984 106.4468 0002032 173.4457   8.4253  1.70474562 10047"}}, "geometry": {"type": "Point", "coordinates": [47.83304287843126, -50.630332718118254]}}, {"type": "Feature", "properties": {"norad_id": 59600, "name": "GSAT0227 (GALILEO 30)", "group": "gnss", "lat": 2.5929046963680378, "lon": -75.43536008357945, "alt_km": 23217.554736264072, "timestamp": "2025-12-09T05:43:20.968873+00:00", "meta": {"OBJECT_NAME": "GSAT0227 (GALILEO 30)", "OBJECT_ID": "2024-079C", "EPOCH": "2025-12-08T08:44:01.424832", "MEAN_MOTION": 1.70474656, "ECCENTRICITY": 0.00032972, "INCLINATION": 54.9942, "RA_OF_ASC_NODE": 106.4167, "ARG_OF_PERICENTER": 114.0276, "MEAN_ANOMALY": 245.9681, "EPHEMERIS_TYPE": 0, "CLASSIFICATION_TYPE": "U", "NORAD_CAT_ID": 59600, "ELEMENT_SET_NO": 999, "REV_AT_EPOCH": 1011, "BSTAR": 0, "MEAN_MOTION_DOT": 8e-08, "MEAN_MOTION_DDOT": 0}, "tle": {"line1": "1 59600U 24079C   25342.36390538  .00000008  00000+0  00000+0 0  9991", "line2": "2 59600  54.9942 106.4167 0003297 114.0276 245.9681  1.70474656 10110"}}, "geometry": {"type": "Point", "coordinates": [-75.43536008357945, 2.5929046963680378]}}, {"type": "Feature", "properties": {"norad_id": 61182, "name": "GSAT0232 (GALILEO 32)", "group": "gnss", "lat": 9.177475051902354, "lon": -127.02804807246869, "alt_km": 23226.97507340471, "timestamp": "2025-12-09T05:43:20.968898+00:00", "meta": {"OBJECT_NAME": "GSAT0232 (GALILEO 32)", "OBJECT_ID": "2024-167A", "EPOCH": "2025-12-08T07:56:10.650912", "MEAN_MOTION": 1.70473284, "ECCENTRICITY": 0.0002045, "INCLINATION": 55.2425, "RA_OF_ASC_NODE": 226.5518, "ARG_OF_PERICENTER": 212.3949, "MEAN_ANOMALY": 321.7655, "EPHEMERIS_TYPE": 0, "CLASSIFICATION_TYPE": "U", "NORAD_CAT_ID": 61182, "ELEMENT_SET_NO": 999, "REV_AT_EPOCH": 762, "BSTAR": 0, "MEAN_MOTION_DOT": 1.8e-07, "MEAN_MOTION_DDOT": 0}, "tle": {"line1": "1 61182U 24167A   25342.33067883  .00000018  00000+0  00000+0 0  9999", "line2": "2 61182  55.2425 226.5518 0002045 212.3949 321.7655  1.70473284  7623"}}, "geometry": {"type": "Point", "coordinates": [-127.02804807246869, 9.177475051902354]}}, {"type": "Feature", "properties": {"norad_id": 61183, "name": "GSAT0226 (GALILEO 31)", "group": "gnss", "lat": 43.00951216783892, "lon": 6.21030316811251, "alt_km": 23214.71743558128, "timestamp": "2025-12-09T05:43:20.968917+00:00", "meta": {"OBJECT_NAME": "GSAT0226 (GALILEO 31)", "OBJECT_ID": "2024-167B", "EPOCH": "2025-12-08T04:07:13.317888", "MEAN_MOTION": 1.70473397, "ECCENTRICITY": 7.98e-05, "INCLINATION": 55.2409, "RA_OF_ASC_NODE": 226.5616, "ARG_OF_PERICENTER": 122.0254, "MEAN_ANOMALY": 67.2121, "EPHEMERIS_TYPE": 0, "CLASSIFICATION_TYPE": "U", "NORAD_CAT_ID": 61183, "ELEMENT_SET_NO": 999, "REV_AT_EPOCH": 759, "BSTAR": 0, "MEAN_MOTION_DOT": 1.9e-07, "MEAN_MOTION_DDOT": 0}, "tle": {"line1": "1 61183U 24167B   25342.17168192  .00000019  00000+0  00000+0 0  9998", "line2": "2 61183  55.2409 226.5616 0000798 122.0254  67.2121  1.70473397  7595"}}, "geometry": {"type": "Point", "coordinates": [6.21030316811251, 43.00951216783892]}}, {"type": "Feature", "properties": {"norad_id": 61186, "name": "BEIDOU-3 M25 (C47)", "group": "gnss", "lat": -54.56246148982092, "lon": -145.6781524371392, "alt_km": 21520.628010702327, "timestamp": "2025-12-09T05:43:20.968935+00:00", "meta": {"OBJECT_NAME": "BEIDOU-3 M25 (C47)", "OBJECT_ID": "2024-168B", "EPOCH": "2025-12-08T20:08:08.310912", "MEAN_MOTION": 1.8622988, "ECCENTRICITY": 0.0005441, "INCLINATION": 54.6453, "RA_OF_ASC_NODE": 308.8544, "ARG_OF_PERICENTER": 295.846, "MEAN_ANOMALY": 63.7287, "EPHEMERIS_TYPE": 0, "CLASSIFICATION_TYPE": "U", "NORAD_CAT_ID": 61186, "ELEMENT_SET_NO": 999, "REV_AT_EPOCH": 823, "BSTAR": 0, "MEAN_MOTION_DOT": -7.5e-07, "MEAN_MOTION_DDOT": 0}, "tle": {"line1": "1 61186U 24168B   25342.83898508 -.00000075  00000+0  00000+0 0  9999", "line2": "2 61186  54.6453 308.8544 0005441 295.8460  63.7287  1.86229880  8231"}}, "geometry": {"type": "Point", "coordinates": [-145.6781524371392, -54.56246148982092]}}, {"type": "Feature", "properties": {"norad_id": 61187, "name": "BEIDOU-3 M27 (C49)", "group": "gnss", "lat": 33.3391977974401, "lon": -23.36841341673722, "alt_km": 21521.73704621164, "timestamp": "2025-12-09T05:43:20.968958+00:00", "meta": {"OBJECT_NAME": "BEIDOU-3 M27 (C49)", "OBJECT_ID": "2024-168C", "EPOCH": "2025-12-08T15:20:42.241056", "MEAN_MOTION": 1.86230009, "ECCENTRICITY": 0.0002317, "INCLINATION": 54.641, "RA_OF_ASC_NODE": 308.845, "ARG_OF_PERICENTER": 333.6022, "MEAN_ANOMALY": 27.0867, "EPHEMERIS_TYPE": 0, "CLASSIFICATION_TYPE": "U", "NORAD_CAT_ID": 61187, "ELEMENT_SET_NO": 999, "REV_AT_EPOCH": 571, "BSTAR": 0, "MEAN_MOTION_DOT": -7.4e-07, "MEAN_MOTION_DDOT": 0}, "tle": {"line1": "1 61187U 24168C   25342.63937779 -.00000074  00000+0  00000+0 0  9991", "line2": "2 61187  54.6410 308.8450 0002317 333.6022  27.0867  1.86230009  5717"}}, "geometry": {"type": "Point", "coordinates": [-23.36841341673722, 33.3391977974401]}}, {"type": "Feature", "properties": {"norad_id": 62339, "name": "GPS BIII-7  (PRN 01)", "group": "gnss", "lat": -51.223074463480735, "lon": -137.13155132497351, "alt_km": 20188.24778679724, "timestamp": "2025-12-09T05:43:20.968979+00:00", "meta": {"OBJECT_NAME": "GPS BIII-7  (PRN 01)", "OBJECT_ID": "2024-242A", "EPOCH": "2025-12-07T21:14:38.700960", "MEAN_MOTION": 2.00567469, "ECCENTRICITY": 0.00119344, "INCLINATION": 54.9247, "RA_OF_ASC_NODE": 341.9365, "ARG_OF_PERICENTER": 343.8064, "MEAN_ANOMALY": 11.4848, "EPHEMERIS_TYPE": 0, "CLASSIFICATION_TYPE": "U", "NORAD_CAT_ID": 62339, "ELEMENT_SET_NO": 999, "REV_AT_EPOCH": 741, "BSTAR": 0, "MEAN_MOTION_DOT": -8.7e-07, "MEAN_MOTION_DDOT": 0}, "tle": {"line1": "1 62339U 24242A   25341.88517015 -.00000087  00000+0  00000+0 0  9991", "line2": "2 62339  54.9247 341.9365 0011934 343.8064  11.4848  2.00567469  7410"}}, "geometry": {"type": "Point", "coordinates": [-137.13155132497351, -51.223074463480735]}}, {"type": "Feature", "properties": {"norad_id": 62850, "name": "NVS-02 (IRNSS-1K)", "group": "gnss", "lat": -16.545822370779344, "lon": -160.34481226458925, "alt_km": 26230.43586605274, "timestamp": "2025-12-09T05:43:20.968998+00:00", "meta": {"OBJECT_NAME": "NVS-02 (IRNSS-1K)", "OBJECT_ID": "2025-020A", "EPOCH": "2025-12-08T09:53:41.443008", "MEAN_MOTION": 2.17590053, "ECCENTRICITY": 0.7347687, "INCLINATION": 20.9953, "RA_OF_ASC_NODE": 329.2268, "ARG_OF_PERICENTER": 23.4238, "MEAN_ANOMALY": 357.5344, "EPHEMERIS_TYPE": 0, "CLASSIFICATION_TYPE": "U", "NORAD_CAT_ID": 62850, "ELEMENT_SET_NO": 999, "REV_AT_EPOCH": 682, "BSTAR": 0.00032972, "MEAN_MOTION_DOT": 2e-06, "MEAN_MOTION_DDOT": 0}, "tle": {"line1": "1 62850U 25020A   25342.41228522  .00000200  00000+0  32972-3 0  9999", "line2": "2 62850  20.9953 329.2268 7347687  23.4238 357.5344  2.17590053  6826"}}, "geometry": {"type": "Point", "coordinates": [-160.34481226458925, -16.545822370779344]}}, {"type": "Feature", "properties": {"norad_id": 63130, "name": "COSMOS 2584 (704K)", "group": "gnss", "lat": 56.49625276995664, "lon": -145.5254356756564, "alt_km": 19127.842790135706, "timestamp": "2025-12-09T05:43:20.969019+00:00", "meta": {"OBJECT_NAME": "COSMOS 2584 (704K)", "OBJECT_ID": "2025-042A", "EPOCH": "2025-12-08T03:39:29.178720", "MEAN_MOTION": 2.13102925, "ECCENTRICITY": 0.0007602, "INCLINATION": 64.9737, "RA_OF_ASC_NODE": 79.3022, "ARG_OF_PERICENTER": 215.9611, "MEAN_ANOMALY": 144.0025, "EPHEMERIS_TYPE": 0, "CLASSIFICATION_TYPE": "U", "NORAD_CAT_ID": 63130, "ELEMENT_SET_NO": 999, "REV_AT_EPOCH": 597, "BSTAR": 0, "MEAN_MOTION_DOT": -1.2e-07, "MEAN_MOTION_DDOT": 0}, "tle": {"line1": "1 63130U 25042A   25342.15242105 -.00000012  00000+0  00000+0 0  9994", "line2": "2 63130  64.9737  79.3022 0007602 215.9611 144.0025  2.13102925  5976"}}, "geometry": {"type": "Point", "coordinates": [-145.5254356756564, 56.49625276995664]}}, {"type": "Feature", "properties": {"norad_id": 64202, "name": "GPS BIII-8  (PRN 21)", "group": "gnss", "lat": 54.32757259393809, "lon": 115.08831525391103, "alt_km": 20186.0455598584, "timestamp": "2025-12-09T05:43:20.969037+00:00", "meta": {"OBJECT_NAME": "GPS BIII-8  (PRN 21)", "OBJECT_ID": "2025-116A", "EPOCH": "2025-12-08T05:53:38.601888", "MEAN_MOTION": 2.0055836, "ECCENTRICITY": 0.00052097, "INCLINATION": 55.1026, "RA_OF_ASC_NODE": 38.8223, "ARG_OF_PERICENTER": 307.4427, "MEAN_ANOMALY": 137.7304, "EPHEMERIS_TYPE": 0, "CLASSIFICATION_TYPE": "U", "NORAD_CAT_ID": 64202, "ELEMENT_SET_NO": 999, "REV_AT_EPOCH": 404, "BSTAR": 0, "MEAN_MOTION_DOT": -7.9e-07, "MEAN_MOTION_DDOT": 0}, "tle": {"line1": "1 64202U 25116A   25342.24558567 -.00000079  00000+0  00000+0 0  9992", "line2": "2 64202  55.1026  38.8223 0005209 307.4427 137.7304  2.00558360  4046"}}, "geometry": {"type": "Point", "coordinates": [115.08831525391103, 54.32757259393809]}}]}